STARLINK-1398
1 25699C 20035AU  21325.09443135  .00005261  00000-0  35260-3 0  3251
2 25699  53.0525 242.8019 0001746  66.8802  11.8091 15.06384212    12
